#dP2022  2 26  0  0  0.00000000      96 __u+U ITR00 FIT  IAC
## 2198 518400.00000000   900.00000000 59636 0.0000000000000
+  118   C06C07C08C09C10C11C12C13C14C16C19C20C21C22C23C24C25
+        C26C27C28C29C30C32C33C34C35C36C37C38C39C40C41C42C43
+        C44C45C46E01E02E03E04E05E07E08E09E10E11E12E13E14E15
+        E18E19E21E24E25E26E27E30E31E33E34E36G01G02G03G04G05
+        G06G07G08G09G10G11G12G13G14G15G16G17G18G19G20G21G22
+        G23G24G25G26G27G28G29G30G31G32J01J02J03R01R02R03R04
+        R05R07R08R09R11R12R13R14R15R17R18R19R20R21R22R24  0
++         8  9  7  8  8  7  7  7  6  8  7  8  6  6  6  7  7
++         7  7  8  8  7  7  8  6  7  8  6  8  8  8  8  7  6
++         7  8  7  7  5  6  5  6  5  6  7  6  7  7  5  6  6
++         5  6  8  4  6  5  7  4  6  6  5  5  7  5  7  7  5
++         5  5  5  6  5  5  5  6  5  6  6  5  5  6  4  5  5
++         6  6  6  5  7  6  6  5  5  5 10  6  9  7  6  8  6
++         7  7  6  7  6  5  7  6  8  6  7  7  7  4  6  7  0
%c M  cc GPS ccc cccc cccc cccc cccc ccccc ccccc ccccc ccccc
%c cc cc ccc ccc cccc cccc cccc cccc ccccc ccccc ccccc ccccc
%f  0.0000000  0.000000000  0.00000000000  0.000000000000000
%f  0.0000000  0.000000000  0.00000000000  0.000000000000000
%i    0    0    0    0      0      0      0      0         0
%i    0    0    0    0      0      0      0      0         0
/* INFORMATION & ANALYSIS CENTER (IAC)      ULTRA-RAPID DATA
/* S/V CLOCKS ARE ALIGNED TO GNSS TIME                      
/* G:C1WC2W R:C1PC2P E:C1XC5X C:C2IC6I J:C1CC2S             
/* PCV:IGS14_2196 OL/AL:FES2004  NONE     YN ORB:CoN CLK:CoN
*  2022 02 26  4 30  0.00000000
PC06 -18744.092211  34713.526600  14570.316965    116.107044
PC07  -3864.017015  36369.942731  21087.733483    -99.820079
PC08  -9044.904512  19429.016118 -36300.580560    160.225566
PC09 -10294.912692  33276.501146  23745.396617   -555.901358
PC10   2430.620188  39364.493607  15786.156477    139.585362
PC11   4467.440492 -21286.719601  17534.969959   -185.235262
PC12  18175.267242 -21101.273671   1756.396144    681.408147
PC13     18.058749  22617.367624 -35439.551549   -105.703871
PC14  -5123.490991 -26949.210955   4989.993253    452.807362
PC16 -19265.214463  34705.079794  13972.026039     90.729445
PC19  11445.289324  25051.818825   4572.550637    892.510317
PC20   -578.984336  25149.812088 -12088.904274   -831.906094
PC21  13061.870324 -10045.119296  22539.913861   -934.936401
PC22  17298.341120  10503.296500  19230.642044   -958.656397
PC23 -26803.029670  -7489.460855  -2126.705934   -952.830879
PC24   6804.106563 -15062.120058 -22498.812910   -944.554129
PC25 -15616.614043 -15557.599625 -17136.451480   -773.919634
PC26  22590.360019  -6544.687944 -15004.901032    773.868512
PC27 -21664.239608  16100.330586   7025.899264    683.317812
PC28 -19103.785364   -135.704899  20344.326661     37.100897
PC29   5736.954368  16467.914149 -21790.286519    520.226999
PC30 -11324.674105  23523.519940  -9823.669126    494.104105
PC32 -12988.469816  10126.165793 -22509.566625   -970.317720
PC33 -11514.281617 -25019.360830  -4440.205246   -960.253150
PC34  10631.407195 -23523.299759  10628.111733   -460.614722
PC35  18800.453467    252.407966 -20640.206771    156.958657
PC36  14738.952575  16034.170764  17459.191704   -919.131242
PC37 -23482.234705   5256.787036  14161.338346   -953.502860
PC38 -16534.072243  19549.345224 -33486.403521    214.085281
PC39 -22550.769246  34886.800821   6643.302948     34.825685
PC40  -6879.339429  33514.672698  24721.249932    247.621753
PC41 -17318.109750 -10902.188966 -18920.626819   -944.260606
PC42   1352.293794 -24697.080479  12954.045304   -933.455334
PC43  -5130.555725 -17044.419325  21491.432196   -939.432332
PC44  21199.028503 -16689.074320  -7217.436490    577.052292
PC45  26853.056543   7297.402109   1894.460096    690.378029
PC46  -5255.238219  15359.960820  22695.239201   -188.531659
PE01 -10700.017055  12732.887672  24481.685939   -586.276379
PE02  10531.631252 -12885.329617 -24485.806560    282.692704
PE03  12814.618007 -24249.826291  11119.415643   -531.669408
PE04   -635.392509  28737.876226   7064.126161   -972.747608
PE05  17691.421280  -5419.308997  23107.842746   -205.526211
PE07 -12200.601742 -16300.864629 -21477.094728   -642.825852
PE08      0.000000      0.000000      0.000000 999999.999999
PE09  12250.085180  16022.817283  21672.154596   5347.362000
PE10   9314.459106  13580.741301 -24598.276051   -497.426374
PE11  19425.908289   7716.378995 -20970.465800   4364.606761
PE12  -1734.508117  17159.771801 -24048.477655   4740.781519
PE13 -18830.121943  -8054.371926  21374.603018    426.842707
PE14  19892.235762 -12248.741613 -16609.546795  -1758.939408
PE15   1913.194642 -17143.916856  24065.542439    761.057928
PE18 -13523.621125  25604.058990   2780.707633  -1748.481260
PE19 -13899.290699  22546.909170 -13202.029083   -403.941694
PE21 -22973.454946  -3651.270141  18305.873910   -719.354286
PE24  22145.926492  19614.447232    -65.835907  -1411.075694
PE25  23054.935695   3864.895250 -18149.349233   -564.908726
PE26 -28469.689123   6253.693215   5150.836776   -848.974189
PE27 -22761.926047 -18895.274086   1269.804271   -240.792940
PE30  -8053.803987 -22787.862692 -17117.784705   -304.379428
PE31   9146.499579  22891.041202  16380.387768   -492.732971
PE33 -21437.519609  16079.669367 -12549.171985   -459.081497
PE34  21256.098823 -16191.217401  12733.587274   -503.833129
PE36  28393.785624  -5723.765183  -6127.317940   -337.594840
PG01   5267.529267  13987.392554 -22259.373192    422.225422
PG02  16750.489595 -15207.925219  14679.976855   -651.497253
PG03  11540.485648  22352.489923  -8794.611541   -138.587051
PG04   1528.456312  22705.950513  13630.823756   -187.268073
PG05   2125.529985 -17655.938345  19519.490743    -72.744245
PG06  26024.226008  -5480.442898    705.357507    213.422731
PG07  20816.100633   7312.561670  15517.202635    312.830960
PG08  -5359.819601  25535.170610  -3850.831008    -57.665402
PG09  10350.107662  14016.060213  19967.784076   -352.495378
PG10 -20348.622830  -7101.894207 -15571.320188   -330.947457
PG11  18781.279489 -12482.223623  14021.720482    -77.361493
PG12  -7500.344240 -22971.799674 -11436.819516   -176.639457
PG13  13182.561232 -22825.107079   2295.191458    267.813790
PG14  20304.979545   8093.774242 -15141.918288    -88.149707
PG15   1762.198399 -25966.271740  -4766.852370    -80.979797
PG16  -7386.957464  14166.796970  20859.733317   -474.128484
PG17  15917.137662  -2114.639942 -20736.613853    580.027356
PG18 -20617.373573  -6992.018316  15280.635011    232.104122
PG19  17552.569735  -9480.096797 -17702.017892    123.839447
PG20  10528.617650 -11557.463441  21467.736444    516.539257
PG21  -5663.160895  15900.418701 -19667.539470    158.627607
PG22 -17131.269841  13109.517613 -14970.165176    219.197560
PG23 -20472.499656 -15791.641232  -6307.170215     -2.057184
PG24  -1245.735675 -16055.432505 -21381.802984    272.301003
PG25 -17409.318035 -20262.988112   -491.526355    290.765060
PG26 -16601.202314   4236.384245  20282.912948    186.348956
PG27 -12421.681388  22176.490248   6756.391646    134.270897
PG28  17067.488456    485.960939 -19763.711921    392.370708
PG29  -7093.328144 -16509.586541  19493.932180   -484.786795
PG30  25472.837800   1399.990434   7900.572296   -515.611185
PG31 -25825.987946   6539.821557   2932.135970   -166.446329
PG32      0.000000      0.000000      0.000000 999999.999999
PJ01 -21344.275870  27912.474850 -18714.594277    228.061731
PJ02 -26809.014248  20785.173358  30009.373404     -1.595612
PJ03 -34799.341956  23864.050547   3476.482110     -0.703997
PR01 -11313.452904  -1566.079692 -22803.461157      7.133528
PR02  -5680.636648  18408.860683 -16637.928932    510.811009
PR03   2893.406031  25303.406119   -669.018841     52.142965
PR04   9478.308888  17980.268873  15435.546816    129.403320
PR05  10934.102633    751.769717  23045.749628     88.387273
PR07  -3152.009212 -25339.202222     77.817076     32.043275
PR08  -9590.385220 -17929.654643 -15361.319790    -63.749011
PR09  11094.397398  -7201.115269 -21811.489152     41.468600
PR11 -20853.342760 -12371.147929  -7901.471121     44.854497
PR12 -22899.319999  -3980.522960  10555.786403     17.281790
PR13 -12036.666001   6321.873357  21562.183570    -18.753616
PR14   7129.218838  13587.800211  20384.837572     74.789389
PR15  21067.687896  12468.447723   7173.294686     97.938422
PR17  -5983.313190  15504.425846 -19352.228254    504.901372
PR18   9424.336020   5827.593960 -22963.327950    108.531280
PR19  19639.655997  -5494.390350 -15321.061904   -179.559099
PR20  19516.917073 -15925.439990   4188.044110    -65.637009
PR21   4741.068017 -14856.442988  20182.186845   -280.989033
PR22  -9992.172198  -5299.798679  22840.439537   -167.089674
PR24 -18781.770676  16579.993028  -4797.780367     81.900951
EOF
